<?xml version="1.0" encoding="UTF-8"?>
<ndm xmlns:xsi="http://www.w3.org/2001/XMLSchema-instance" xsi:noNamespaceSchemaLocation="https://sanaregistry.org/r/ndmxml_unqualified/ndmxml-2.0.0-master-2.0.xsd">
<omm id="CCSDS_OMM_VERS" version="2.0">
<header><CREATION_DATE/><ORIGINATOR/></header><body><segment><metadata><OBJECT_NAME>GLOBALSTAR M075</OBJECT_NAME><OBJECT_ID>2010-054E</OBJECT_ID><CENTER_NAME>EARTH</CENTER_NAME><REF_FRAME>TEME</REF_FRAME><TIME_SYSTEM>UTC</TIME_SYSTEM><MEAN_ELEMENT_THEORY>SGP4</MEAN_ELEMENT_THEORY></metadata><data><meanElements><EPOCH>2025-06-19T09:35:40.128000</EPOCH><MEAN_MOTION>12.62265846</MEAN_MOTION><ECCENTRICITY>.0000096</ECCENTRICITY><INCLINATION>51.9917</INCLINATION><RA_OF_ASC_NODE>174.7999</RA_OF_ASC_NODE><ARG_OF_PERICENTER>65.2660</ARG_OF_PERICENTER><MEAN_ANOMALY>81.7153</MEAN_ANOMALY></meanElements><tleParameters><EPHEMERIS_TYPE>0</EPHEMERIS_TYPE><CLASSIFICATION_TYPE>U</CLASSIFICATION_TYPE><NORAD_CAT_ID>37192</NORAD_CAT_ID><ELEMENT_SET_NO>999</ELEMENT_SET_NO><REV_AT_EPOCH>67612</REV_AT_EPOCH><BSTAR>.12061E-3</BSTAR><MEAN_MOTION_DOT>-.82E-6</MEAN_MOTION_DOT><MEAN_MOTION_DDOT>0</MEAN_MOTION_DDOT></tleParameters></data></segment></body></omm>
<omm id="CCSDS_OMM_VERS" version="2.0">
<header><CREATION_DATE/><ORIGINATOR/></header><body><segment><metadata><OBJECT_NAME>GLOBALSTAR M073</OBJECT_NAME><OBJECT_ID>2010-054F</OBJECT_ID><CENTER_NAME>EARTH</CENTER_NAME><REF_FRAME>TEME</REF_FRAME><TIME_SYSTEM>UTC</TIME_SYSTEM><MEAN_ELEMENT_THEORY>SGP4</MEAN_ELEMENT_THEORY></metadata><data><meanElements><EPOCH>2025-06-19T05:53:34.737216</EPOCH><MEAN_MOTION>12.62272031</MEAN_MOTION><ECCENTRICITY>.0000659</ECCENTRICITY><INCLINATION>52.0064</INCLINATION><RA_OF_ASC_NODE>89.0890</RA_OF_ASC_NODE><ARG_OF_PERICENTER>37.3999</ARG_OF_PERICENTER><MEAN_ANOMALY>128.2255</MEAN_ANOMALY></meanElements><tleParameters><EPHEMERIS_TYPE>0</EPHEMERIS_TYPE><CLASSIFICATION_TYPE>U</CLASSIFICATION_TYPE><NORAD_CAT_ID>37193</NORAD_CAT_ID><ELEMENT_SET_NO>999</ELEMENT_SET_NO><REV_AT_EPOCH>67809</REV_AT_EPOCH><BSTAR>.13776E-4</BSTAR><MEAN_MOTION_DOT>-.101E-5</MEAN_MOTION_DOT><MEAN_MOTION_DDOT>0</MEAN_MOTION_DDOT></tleParameters></data></segment></body></omm>
<omm id="CCSDS_OMM_VERS" version="2.0">
<header><CREATION_DATE/><ORIGINATOR/></header><body><segment><metadata><OBJECT_NAME>GLOBALSTAR M083</OBJECT_NAME><OBJECT_ID>2011-033A</OBJECT_ID><CENTER_NAME>EARTH</CENTER_NAME><REF_FRAME>TEME</REF_FRAME><TIME_SYSTEM>UTC</TIME_SYSTEM><MEAN_ELEMENT_THEORY>SGP4</MEAN_ELEMENT_THEORY></metadata><data><meanElements><EPOCH>2025-06-19T13:04:50.692224</EPOCH><MEAN_MOTION>12.62263959</MEAN_MOTION><ECCENTRICITY>.0000621</ECCENTRICITY><INCLINATION>51.9873</INCLINATION><RA_OF_ASC_NODE>36.9071</RA_OF_ASC_NODE><ARG_OF_PERICENTER>78.3469</ARG_OF_PERICENTER><MEAN_ANOMALY>308.1565</MEAN_ANOMALY></meanElements><tleParameters><EPHEMERIS_TYPE>0</EPHEMERIS_TYPE><CLASSIFICATION_TYPE>U</CLASSIFICATION_TYPE><NORAD_CAT_ID>37739</NORAD_CAT_ID><ELEMENT_SET_NO>999</ELEMENT_SET_NO><REV_AT_EPOCH>64751</REV_AT_EPOCH><BSTAR>.29682E-4</BSTAR><MEAN_MOTION_DOT>-.98E-6</MEAN_MOTION_DOT><MEAN_MOTION_DDOT>0</MEAN_MOTION_DDOT></tleParameters></data></segment></body></omm>
<omm id="CCSDS_OMM_VERS" version="2.0">
<header><CREATION_DATE/><ORIGINATOR/></header><body><segment><metadata><OBJECT_NAME>GLOBALSTAR M088</OBJECT_NAME><OBJECT_ID>2011-033B</OBJECT_ID><CENTER_NAME>EARTH</CENTER_NAME><REF_FRAME>TEME</REF_FRAME><TIME_SYSTEM>UTC</TIME_SYSTEM><MEAN_ELEMENT_THEORY>SGP4</MEAN_ELEMENT_THEORY></metadata><data><meanElements><EPOCH>2025-06-19T08:38:39.242688</EPOCH><MEAN_MOTION>12.62265579</MEAN_MOTION><ECCENTRICITY>.0000795</ECCENTRICITY><INCLINATION>52.0062</INCLINATION><RA_OF_ASC_NODE>303.0224</RA_OF_ASC_NODE><ARG_OF_PERICENTER>124.0933</ARG_OF_PERICENTER><MEAN_ANOMALY>262.6279</MEAN_ANOMALY></meanElements><tleParameters><EPHEMERIS_TYPE>0</EPHEMERIS_TYPE><CLASSIFICATION_TYPE>U</CLASSIFICATION_TYPE><NORAD_CAT_ID>37740</NORAD_CAT_ID><ELEMENT_SET_NO>999</ELEMENT_SET_NO><REV_AT_EPOCH>64267</REV_AT_EPOCH><BSTAR>.40373E-4</BSTAR><MEAN_MOTION_DOT>-.97E-6</MEAN_MOTION_DOT><MEAN_MOTION_DDOT>0</MEAN_MOTION_DDOT></tleParameters></data></segment></body></omm>
<omm id="CCSDS_OMM_VERS" version="2.0">
<header><CREATION_DATE/><ORIGINATOR/></header><body><segment><metadata><OBJECT_NAME>GLOBALSTAR M091</OBJECT_NAME><OBJECT_ID>2011-033C</OBJECT_ID><CENTER_NAME>EARTH</CENTER_NAME><REF_FRAME>TEME</REF_FRAME><TIME_SYSTEM>UTC</TIME_SYSTEM><MEAN_ELEMENT_THEORY>SGP4</MEAN_ELEMENT_THEORY></metadata><data><meanElements><EPOCH>2025-06-20T05:51:24.375168</EPOCH><MEAN_MOTION>12.62268871</MEAN_MOTION><ECCENTRICITY>.00006</ECCENTRICITY><INCLINATION>51.9997</INCLINATION><RA_OF_ASC_NODE>263.8281</RA_OF_ASC_NODE><ARG_OF_PERICENTER>160.7805</ARG_OF_PERICENTER><MEAN_ANOMALY>224.5461</MEAN_ANOMALY></meanElements><tleParameters><EPHEMERIS_TYPE>0</EPHEMERIS_TYPE><CLASSIFICATION_TYPE>U</CLASSIFICATION_TYPE><NORAD_CAT_ID>37741</NORAD_CAT_ID><ELEMENT_SET_NO>999</ELEMENT_SET_NO><REV_AT_EPOCH>64383</REV_AT_EPOCH><BSTAR>.21786E-4</BSTAR><MEAN_MOTION_DOT>-.1E-5</MEAN_MOTION_DOT><MEAN_MOTION_DDOT>0</MEAN_MOTION_DDOT></tleParameters></data></segment></body></omm>
<omm id="CCSDS_OMM_VERS" version="2.0">
<header><CREATION_DATE/><ORIGINATOR/></header><body><segment><metadata><OBJECT_NAME>GLOBALSTAR M085</OBJECT_NAME><OBJECT_ID>2011-033D</OBJECT_ID><CENTER_NAME>EARTH</CENTER_NAME><REF_FRAME>TEME</REF_FRAME><TIME_SYSTEM>UTC</TIME_SYSTEM><MEAN_ELEMENT_THEORY>SGP4</MEAN_ELEMENT_THEORY></metadata><data><meanElements><EPOCH>2025-06-19T10:28:14.386368</EPOCH><MEAN_MOTION>12.62269440</MEAN_MOTION><ECCENTRICITY>.0000378</ECCENTRICITY><INCLINATION>51.9844</INCLINATION><RA_OF_ASC_NODE>217.3225</RA_OF_ASC_NODE><ARG_OF_PERICENTER>190.8515</ARG_OF_PERICENTER><MEAN_ANOMALY>182.6109</MEAN_ANOMALY></meanElements><tleParameters><EPHEMERIS_TYPE>0</EPHEMERIS_TYPE><CLASSIFICATION_TYPE>U</CLASSIFICATION_TYPE><NORAD_CAT_ID>37742</NORAD_CAT_ID><ELEMENT_SET_NO>999</ELEMENT_SET_NO><REV_AT_EPOCH>64398</REV_AT_EPOCH><BSTAR>.31877E-4</BSTAR><MEAN_MOTION_DOT>-.98E-6</MEAN_MOTION_DOT><MEAN_MOTION_DDOT>0</MEAN_MOTION_DDOT></tleParameters></data></segment></body></omm>
<omm id="CCSDS_OMM_VERS" version="2.0">
<header><CREATION_DATE/><ORIGINATOR/></header><body><segment><metadata><OBJECT_NAME>GLOBALSTAR M081</OBJECT_NAME><OBJECT_ID>2011-033E</OBJECT_ID><CENTER_NAME>EARTH</CENTER_NAME><REF_FRAME>TEME</REF_FRAME><TIME_SYSTEM>UTC</TIME_SYSTEM><MEAN_ELEMENT_THEORY>SGP4</MEAN_ELEMENT_THEORY></metadata><data><meanElements><EPOCH>2025-06-20T02:21:06.629760</EPOCH><MEAN_MOTION>12.62266661</MEAN_MOTION><ECCENTRICITY>.0000178</ECCENTRICITY><INCLINATION>51.9937</INCLINATION><RA_OF_ASC_NODE>218.0982</RA_OF_ASC_NODE><ARG_OF_PERICENTER>212.4387</ARG_OF_PERICENTER><MEAN_ANOMALY>168.1168</MEAN_ANOMALY></meanElements><tleParameters><EPHEMERIS_TYPE>0</EPHEMERIS_TYPE><CLASSIFICATION_TYPE>U</CLASSIFICATION_TYPE><NORAD_CAT_ID>37743</NORAD_CAT_ID><ELEMENT_SET_NO>999</ELEMENT_SET_NO><REV_AT_EPOCH>64459</REV_AT_EPOCH><BSTAR>.92792E-4</BSTAR><MEAN_MOTION_DOT>-.87E-6</MEAN_MOTION_DOT><MEAN_MOTION_DDOT>0</MEAN_MOTION_DDOT></tleParameters></data></segment></body></omm>
<omm id="CCSDS_OMM_VERS" version="2.0">
<header><CREATION_DATE/><ORIGINATOR/></header><body><segment><metadata><OBJECT_NAME>GLOBALSTAR M089</OBJECT_NAME><OBJECT_ID>2011-033F</OBJECT_ID><CENTER_NAME>EARTH</CENTER_NAME><REF_FRAME>TEME</REF_FRAME><TIME_SYSTEM>UTC</TIME_SYSTEM><MEAN_ELEMENT_THEORY>SGP4</MEAN_ELEMENT_THEORY></metadata><data><meanElements><EPOCH>2025-06-20T01:29:59.233632</EPOCH><MEAN_MOTION>12.62264935</MEAN_MOTION><ECCENTRICITY>.0000342</ECCENTRICITY><INCLINATION>51.9901</INCLINATION><RA_OF_ASC_NODE>172.4307</RA_OF_ASC_NODE><ARG_OF_PERICENTER>41.5802</ARG_OF_PERICENTER><MEAN_ANOMALY>358.9131</MEAN_ANOMALY></meanElements><tleParameters><EPHEMERIS_TYPE>0</EPHEMERIS_TYPE><CLASSIFICATION_TYPE>U</CLASSIFICATION_TYPE><NORAD_CAT_ID>37744</NORAD_CAT_ID><ELEMENT_SET_NO>999</ELEMENT_SET_NO><REV_AT_EPOCH>64530</REV_AT_EPOCH><BSTAR>.12237E-3</BSTAR><MEAN_MOTION_DOT>-.82E-6</MEAN_MOTION_DOT><MEAN_MOTION_DDOT>0</MEAN_MOTION_DDOT></tleParameters></data></segment></body></omm>

</ndm>
