GLOBALSTAR M075         
1 37192U 10054E   25170.39977000 -.00000082  00000+0  12061-3 0  9995
2 37192  51.9917 174.7999 0000096  65.2660  81.7153 12.62265846676121
GLOBALSTAR M073         
1 37193U 10054F   25170.24554094 -.00000101  00000+0  13776-4 0  9991
2 37193  52.0064  89.0890 0000659  37.3999 128.2255 12.62272031678097
GLOBALSTAR M083         
1 37739U 11033A   25170.54503116 -.00000098  00000+0  29682-4 0  9995
2 37739  51.9873  36.9071 0000621  78.3469 308.1565 12.62263959647512
GLOBALSTAR M088         
1 37740U 11033B   25170.36017642 -.00000097  00000+0  40373-4 0  9990
2 37740  52.0062 303.0224 0000795 124.0933 262.6279 12.62265579642679
GLOBALSTAR M091         
1 37741U 11033C   25171.24403212 -.00000100  00000+0  21786-4 0  9993
2 37741  51.9997 263.8281 0000600 160.7805 224.5461 12.62268871643838
GLOBALSTAR M085         
1 37742U 11033D   25170.43627762 -.00000098  00000+0  31877-4 0  9990
2 37742  51.9844 217.3225 0000378 190.8515 182.6109 12.62269440643988
GLOBALSTAR M081         
1 37743U 11033E   25171.09799340 -.00000087  00000+0  92792-4 0  9997
2 37743  51.9937 218.0982 0000178 212.4387 168.1168 12.62266661644590
GLOBALSTAR M089         
1 37744U 11033F   25171.06249113 -.00000082  00000+0  12237-3 0  9993
2 37744  51.9901 172.4307 0000342  41.5802 358.9131 12.62264935645303
